[{"OBJECT_NAME":"STARLINK-4534","OBJECT_ID":"2022-097H","EPOCH":"2026-03-09T10:29:46.464576","MEAN_MOTION":15.08838595,"ECCENTRICITY":0.00014401,"INCLINATION":53.2161,"RA_OF_ASC_NODE":125.2613,"ARG_OF_PERICENTER":92.6847,"MEAN_ANOMALY":267.431,"EPHEMERIS_TYPE":0,"CLASSIFICATION_TYPE":"U","NORAD_CAT_ID":53395,"ELEMENT_SET_NO":999,"REV_AT_EPOCH":19847,"BSTAR":1.7838296e-5,"MEAN_MOTION_DOT":-4.0e-8,"MEAN_MOTION_DDOT":0},{"OBJECT_NAME":"POSAT-2","OBJECT_ID":"2025-009DR","EPOCH":"2026-03-09T23:15:20.314368","MEAN_MOTION":15.10404492,"ECCENTRICITY":0.00077103,"INCLINATION":97.4906,"RA_OF_ASC_NODE":146.0095,"ARG_OF_PERICENTER":126.4226,"MEAN_ANOMALY":233.7715,"EPHEMERIS_TYPE":0,"CLASSIFICATION_TYPE":"U","NORAD_CAT_ID":63488,"ELEMENT_SET_NO":999,"REV_AT_EPOCH":5165,"BSTAR":0.0010942248,"MEAN_MOTION_DOT":0.00017957,"MEAN_MOTION_DDOT":0}]
